IRIDIUM 136             
1 42962U 17061H   24139.61390255  .00000045  00000+0  90453-5 0  9992
2 42962  86.3968 342.6880 0002529  81.8055 278.3428 14.34215447345967
